STARLINK-34813          
1 66195U 25243U   26068.74921589  .00045285  00000+0  15328-2 0  9994
2 66195  53.1603 244.9251 0001066  75.2464 284.8655 15.30179137 20664
KUIPER-00175            
1 67135U 25301C   26068.97960463  .00019968  00000+0  66732-3 0  9998
2 67135  51.8781  63.6978 0002279  50.5695 309.5490 15.30996371 13854
